{
  "norad_id": 65238,
  "name": "STARLINK-34818",
  "history": [
    {
      "epoch": "2026-03-28T20:27:45.830592Z",
      "apogee_km": 550.4370512038277,
      "perigee_km": 548.6242191370566,
      "latitude_deg": 4.4852861253863505e-05,
      "longitude_deg": -1.3236771522167714,
      "height_km": 552.9517158893261,
      "semi_major_axis_km": 6927.667635170442,
      "eccentricity": 0.00013084,
      "inclination_deg": 97.6042,
      "raan_deg": 131.8844,
      "arg_perigee_deg": 113.2487,
      "mean_anomaly_deg": 246.8878,
      "mean_motion_rev_day": 15.05643649
    },
    {
      "epoch": "2026-03-29T02:50:33.872640Z",
      "apogee_km": 550.4418189003172,
      "perigee_km": 548.5949059806908,
      "latitude_deg": -1.6866783894222202e-05,
      "longitude_deg": -97.02386192412939,
      "height_km": 552.9457964935334,
      "semi_major_axis_km": 6927.655362440504,
      "eccentricity": 0.0001333,
      "inclination_deg": 97.6042,
      "raan_deg": 132.1464,
      "arg_perigee_deg": 113.225,
      "mean_anomaly_deg": 246.9117,
      "mean_motion_rev_day": 15.0564765
    }
  ]
}